0 GLOBALSTAR M008
1 25309U 98023D   13282.15346516 -.00000071  00000-0  19764-3 0  3104
2 25309 051.9959 333.2449 0002717 134.1763 256.3474 12.35928296710263
0 GLOBALSTAR M008
1 25309U 98023D   13283.45930200 -.00000070  00000-0  20421-3 0  3119
2 25309 051.9957 329.4598 0002602 136.6136 306.7725 12.35928194710421
0 GLOBALSTAR M008
1 25309U 98023D   13284.53183118 -.00000057  00000-0  30423-3 0  3126
2 25309 051.9956 326.3509 0002577 138.6002 039.0926 12.35928196710558
0 GLOBALSTAR M008
1 25309U 98023D   13285.65816578 -.00000062  00000-0  26932-3 0  3130
2 25309 051.9954 323.0860 0002531 140.7051 010.8052 12.35928335710695
0 GLOBALSTAR M008
1 25309U 98023D   13287.08582603 -.00000082  00000-0  11427-3 0  3144
2 25309 051.9952 318.9476 0002477 143.4038 243.2589 12.35928595710878
0 GLOBALSTAR M008
1 25309U 98023D   13288.14023523 -.00000091  00000-0  41505-4 0  3155
2 25309 051.9951 315.8912 0002410 145.2628 255.0464 12.35928697711002
0 GLOBALSTAR M008
1 25309U 98023D   13289.45826142 -.00000089  00000-0  53005-4 0  3164
2 25309 051.9951 312.0704 0002356 147.5180 359.9162 12.35928647711168
0 GLOBALSTAR M008
1 25309U 98023D   13290.51178999 -.00000093  00000-0  27505-4 0  3175
2 25309 051.9950 309.0164 0002322 149.4381 007.7234 12.35928715711298
0 GLOBALSTAR M008
1 25309U 98023D   13291.56203197 -.00000097  00000-0 -39710-5 0  3188
2 25309 051.9950 305.9719 0002285 151.2459 001.0128 12.35928733711428
0 GLOBALSTAR M008
1 25309U 98023D   13293.07288920 -.00000080  00000-0  12579-3 0  3197
2 25309 051.9950 301.5923 0002213 153.6742 244.0875 12.35928594711613
0 GLOBALSTAR M008
1 25309U 98023D   13294.47650084 -.00000066  00000-0  23395-3 0  3200
2 25309 051.9950 297.5238 0002169 156.0591 009.8071 12.35928508711783
0 GLOBALSTAR M008
1 25309U 98023D   13295.52464846 -.00000070  00000-0  20408-3 0  3214
2 25309 051.9949 294.4856 0002110 157.4938 354.1459 12.35928593711914
